[{"OBJECT_NAME":"STARLINK-6054","OBJECT_ID":"2023-064T","EPOCH":"2026-03-09T19:26:06.901440","MEAN_MOTION":14.9832823,"ECCENTRICITY":0.000296,"INCLINATION":69.9997,"RA_OF_ASC_NODE":103.9981,"ARG_OF_PERICENTER":271.5025,"MEAN_ANOMALY":88.5795,"EPHEMERIS_TYPE":0,"CLASSIFICATION_TYPE":"U","NORAD_CAT_ID":56465,"ELEMENT_SET_NO":999,"REV_AT_EPOCH":15625,"BSTAR":-1.4506663e-5,"MEAN_MOTION_DOT":-2.66e-6,"MEAN_MOTION_DDOT":0},{"OBJECT_NAME":"SITRO-AIS 16","OBJECT_ID":"2024-199C","EPOCH":"2026-03-09T22:02:52.039104","MEAN_MOTION":14.97049887,"ECCENTRICITY":0.00080733,"INCLINATION":97.3322,"RA_OF_ASC_NODE":274.4213,"ARG_OF_PERICENTER":52.0818,"MEAN_ANOMALY":308.1134,"EPHEMERIS_TYPE":0,"CLASSIFICATION_TYPE":"U","NORAD_CAT_ID":61737,"ELEMENT_SET_NO":999,"REV_AT_EPOCH":11696,"BSTAR":0.00041232113,"MEAN_MOTION_DOT":4.701e-5,"MEAN_MOTION_DDOT":0}]
